{"type": "FeatureCollection", "features": [ {"type": "Feature", "properties": {"norad_id": 29808, "name": "FENGYUN 1C DEB", "group": "fengyun-1c-debris", "lat": 14.034851682130151, "lon": -103.2073665283649, "alt_km": 509.471000458685, "timestamp": "2025-12-07T16:44:04.182680+00:00", "meta": {"OBJECT_NAME": "FENGYUN 1C DEB", "OBJECT_ID": "1999-025DA", "EPOCH": "2025-12-06T17:12:28.012032", "MEAN_MOTION": 15.17581701, "ECCENTRICITY": 0.00173603, "INCLINATION": 99.0162, "RA_OF_ASC_NODE": 257.9011, "ARG_OF_PERICENTER": 96.5885, "MEAN_ANOMALY": 324.2448, "EPHEMERIS_TYPE": 0, "CLASSIFICATION_TYPE": "U", "NORAD_CAT_ID": 29808, "ELEMENT_SET_NO": 999, "REV_AT_EPOCH": 98134, "BSTAR": 0.019962122, "MEAN_MOTION_DOT": 0.00426114, "MEAN_MOTION_DDOT": 0}, "tle": {"line1": "1 29808U 99025DA  25340.71699088  .00426114  00000+0  19962-1 0  9999", "line2": "2 29808  99.0162 257.9011 0017360  96.5885 324.2448 15.17581701981347"}}, "geometry": {"type": "Point", "coordinates": [-103.2073665283649, 14.034851682130151]}}, {"type": "Feature", "properties": {"norad_id": 29809, "name": "FENGYUN 1C DEB", "group": "fengyun-1c-debris", "lat": -5.774184466661385, "lon": 124.10496357520265, "alt_km": 823.4412177767481, "timestamp": "2025-12-07T16:44:04.182690+00:00", "meta": {"OBJECT_NAME": "FENGYUN 1C DEB", "OBJECT_ID": "1999-025DB", "EPOCH": "2025-12-06T21:55:42.845376", "MEAN_MOTION": 14.46563622, "ECCENTRICITY": 0.01164921, "INCLINATION": 98.8594, "RA_OF_ASC_NODE": 304.1896, "ARG_OF_PERICENTER": 7.422, "MEAN_ANOMALY": 60.0642, "EPHEMERIS_TYPE": 0, "CLASSIFICATION_TYPE": "U", "NORAD_CAT_ID": 29809, "ELEMENT_SET_NO": 999, "REV_AT_EPOCH": 99383, "BSTAR": 0.00068022615, "MEAN_MOTION_DOT": 2.615e-05, "MEAN_MOTION_DDOT": 0}, "tle": {"line1": "1 29809U 99025DB  25340.91369034  .00002615  00000+0  68023-3 0  9997", "line2": "2 29809  98.8594 304.1896 0116492   7.4220  60.0642 14.46563622993831"}}, "geometry": {"type": "Point", "coordinates": [124.10496357520265, -5.774184466661385]}}, {"type": "Feature", "properties": {"norad_id": 29810, "name": "FENGYUN 1C DEB", "group": "fengyun-1c-debris", "lat": 13.715454814116956, "lon": -159.49135449728163, "alt_km": 828.0511498931701, "timestamp": "2025-12-07T16:44:04.182700+00:00", "meta": {"OBJECT_NAME": "FENGYUN 1C DEB", "OBJECT_ID": "1999-025DC", "EPOCH": "2025-12-06T20:37:40.674720", "MEAN_MOTION": 14.29118005, "ECCENTRICITY": 0.00671789, "INCLINATION": 99.2074, "RA_OF_ASC_NODE": 17.3556, "ARG_OF_PERICENTER": 35.8536, "MEAN_ANOMALY": 141.7867, "EPHEMERIS_TYPE": 0, "CLASSIFICATION_TYPE": "U", "NORAD_CAT_ID": 29810, "ELEMENT_SET_NO": 999, "REV_AT_EPOCH": 98293, "BSTAR": 0.00048591162, "MEAN_MOTION_DOT": 1.214e-05, "MEAN_MOTION_DDOT": 0}, "tle": {"line1": "1 29810U 99025DC  25340.85949855  .00001214  00000+0  48591-3 0  9999", "line2": "2 29810  99.2074  17.3556 0067178  35.8536 141.7867 14.29118005982935"}}, "geometry": {"type": "Point", "coordinates": [-159.49135449728163, 13.715454814116956]}}, {"type": "Feature", "properties": {"norad_id": 29812, "name": "FENGYUN 1C DEB", "group": "fengyun-1c-debris", "lat": 3.970382112360511, "lon": -8.461179064950873, "alt_km": 990.9779589868167, "timestamp": "2025-12-07T16:44:04.182711+00:00", "meta": {"OBJECT_NAME": "FENGYUN 1C DEB", "OBJECT_ID": "1999-025DE", "EPOCH": "2025-12-05T01:07:46.446240", "MEAN_MOTION": 14.019487, "ECCENTRICITY": 0.01442093, "INCLINATION": 98.3499, "RA_OF_ASC_NODE": 168.5263, "ARG_OF_PERICENTER": 349.4282, "MEAN_ANOMALY": 138.6349, "EPHEMERIS_TYPE": 0, "CLASSIFICATION_TYPE": "U", "NORAD_CAT_ID": 29812, "ELEMENT_SET_NO": 999, "REV_AT_EPOCH": 96064, "BSTAR": 0.0017472529, "MEAN_MOTION_DOT": 2.877e-05, "MEAN_MOTION_DDOT": 0}, "tle": {"line1": "1 29812U 99025DE  25339.04706535  .00002877  00000+0  17473-2 0  9996", "line2": "2 29812  98.3499 168.5263 0144209 349.4282 138.6349 14.01948700960642"}}, "geometry": {"type": "Point", "coordinates": [-8.461179064950873, 3.970382112360511]}}, {"type": "Feature", "properties": {"norad_id": 29813, "name": "FENGYUN 1C DEB", "group": "fengyun-1c-debris", "lat": 29.909916735197562, "lon": -3.356899791819018, "alt_km": 867.1084725006876, "timestamp": "2025-12-07T16:44:04.182721+00:00", "meta": {"OBJECT_NAME": "FENGYUN 1C DEB", "OBJECT_ID": "1999-025DF", "EPOCH": "2025-12-05T08:26:47.543424", "MEAN_MOTION": 14.09447975, "ECCENTRICITY": 0.00115731, "INCLINATION": 98.728, "RA_OF_ASC_NODE": 359.4401, "ARG_OF_PERICENTER": 244.4199, "MEAN_ANOMALY": 132.2998, "EPHEMERIS_TYPE": 0, "CLASSIFICATION_TYPE": "U", "NORAD_CAT_ID": 29813, "ELEMENT_SET_NO": 999, "REV_AT_EPOCH": 97156, "BSTAR": 0.00017865491, "MEAN_MOTION_DOT": 2.69e-06, "MEAN_MOTION_DDOT": 0}, "tle": {"line1": "1 29813U 99025DF  25339.35193916  .00000269  00000+0  17865-3 0  9993", "line2": "2 29813  98.7280 359.4401 0011573 244.4199 132.2998 14.09447975971567"}}, "geometry": {"type": "Point", "coordinates": [-3.356899791819018, 29.909916735197562]}}, {"type": "Feature", "properties": {"norad_id": 29815, "name": "FENGYUN 1C DEB", "group": "fengyun-1c-debris", "lat": 74.79134611797193, "lon": -158.2810489928077, "alt_km": 586.3005038246829, "timestamp": "2025-12-07T16:44:04.182731+00:00", "meta": {"OBJECT_NAME": "FENGYUN 1C DEB", "OBJECT_ID": "1999-025DH", "EPOCH": "2025-12-05T23:14:42.454752", "MEAN_MOTION": 14.63648559, "ECCENTRICITY": 0.01837546, "INCLINATION": 98.0551, "RA_OF_ASC_NODE": 348.6345, "ARG_OF_PERICENTER": 156.4645, "MEAN_ANOMALY": 204.5103, "EPHEMERIS_TYPE": 0, "CLASSIFICATION_TYPE": "U", "NORAD_CAT_ID": 29815, "ELEMENT_SET_NO": 999, "REV_AT_EPOCH": 99756, "BSTAR": 0.00086580751, "MEAN_MOTION_DOT": 5.705e-05, "MEAN_MOTION_DDOT": 0}, "tle": {"line1": "1 29815U 99025DH  25339.96854693  .00005705  00000+0  86581-3 0  9999", "line2": "2 29815  98.0551 348.6345 0183754 156.4645 204.5103 14.63648559997569"}}, "geometry": {"type": "Point", "coordinates": [-158.2810489928077, 74.79134611797193]}}, {"type": "Feature", "properties": {"norad_id": 29816, "name": "FENGYUN 1C DEB", "group": "fengyun-1c-debris", "lat": -79.85158276794782, "lon": -40.813641866857026, "alt_km": 698.9708631771009, "timestamp": "2025-12-07T16:44:04.182741+00:00", "meta": {"OBJECT_NAME": "FENGYUN 1C DEB", "OBJECT_ID": "1999-025DJ", "EPOCH": "2025-12-06T21:18:27.402624", "MEAN_MOTION": 14.44213422, "ECCENTRICITY": 0.02377692, "INCLINATION": 98.9928, "RA_OF_ASC_NODE": 200.5436, "ARG_OF_PERICENTER": 194.588, "MEAN_ANOMALY": 181.9985, "EPHEMERIS_TYPE": 0, "CLASSIFICATION_TYPE": "U", "NORAD_CAT_ID": 29816, "ELEMENT_SET_NO": 999, "REV_AT_EPOCH": 98103, "BSTAR": 0.0018101169, "MEAN_MOTION_DOT": 8.735e-05, "MEAN_MOTION_DDOT": 0}, "tle": {"line1": "1 29816U 99025DJ  25340.88781716  .00008735  00000+0  18101-2 0  9996", "line2": "2 29816  98.9928 200.5436 0237769 194.5880 181.9985 14.44213422981031"}}, "geometry": {"type": "Point", "coordinates": [-40.813641866857026, -79.85158276794782]}}, {"type": "Feature", "properties": {"norad_id": 29817, "name": "FENGYUN 1C DEB", "group": "fengyun-1c-debris", "lat": 26.19671794214493, "lon": -33.138933696075675, "alt_km": 834.8418987572977, "timestamp": "2025-12-07T16:44:04.182752+00:00", "meta": {"OBJECT_NAME": "FENGYUN 1C DEB", "OBJECT_ID": "1999-025DK", "EPOCH": "2025-12-06T22:12:58.636224", "MEAN_MOTION": 14.14241042, "ECCENTRICITY": 0.00125601, "INCLINATION": 98.5571, "RA_OF_ASC_NODE": 330.3702, "ARG_OF_PERICENTER": 31.5383, "MEAN_ANOMALY": 28.9116, "EPHEMERIS_TYPE": 0, "CLASSIFICATION_TYPE": "U", "NORAD_CAT_ID": 29817, "ELEMENT_SET_NO": 999, "REV_AT_EPOCH": 97313, "BSTAR": 0.00052859187, "MEAN_MOTION_DOT": 9.68e-06, "MEAN_MOTION_DDOT": 0}, "tle": {"line1": "1 29817U 99025DK  25340.92567866  .00000968  00000+0  52859-3 0  9999", "line2": "2 29817  98.5571 330.3702 0012560  31.5383  28.9116 14.14241042973132"}}, "geometry": {"type": "Point", "coordinates": [-33.138933696075675, 26.19671794214493]}}, {"type": "Feature", "properties": {"norad_id": 29818, "name": "FENGYUN 1C DEB", "group": "fengyun-1c-debris", "lat": -61.692715630965665, "lon": -124.23274703106804, "alt_km": 903.0841552968004, "timestamp": "2025-12-07T16:44:04.182762+00:00", "meta": {"OBJECT_NAME": "FENGYUN 1C DEB", "OBJECT_ID": "1999-025DL", "EPOCH": "2025-12-06T22:18:52.077024", "MEAN_MOTION": 14.04496193, "ECCENTRICITY": 0.01154869, "INCLINATION": 98.7219, "RA_OF_ASC_NODE": 218.4704, "ARG_OF_PERICENTER": 42.0732, "MEAN_ANOMALY": 337.8368, "EPHEMERIS_TYPE": 0, "CLASSIFICATION_TYPE": "U", "NORAD_CAT_ID": 29818, "ELEMENT_SET_NO": 999, "REV_AT_EPOCH": 96728, "BSTAR": 0.00028813535, "MEAN_MOTION_DOT": 4.46e-06, "MEAN_MOTION_DDOT": 0}, "tle": {"line1": "1 29818U 99025DL  25340.92976941  .00000446  00000+0  28814-3 0  9993", "line2": "2 29818  98.7219 218.4704 0115486  42.0732 337.8368 14.04496193967286"}}, "geometry": {"type": "Point", "coordinates": [-124.23274703106804, -61.692715630965665]}}, {"type": "Feature", "properties": {"norad_id": 29819, "name": "FENGYUN 1C DEB", "group": "fengyun-1c-debris", "lat": 80.7857072491547, "lon": -143.0419354585753, "alt_km": 742.4668220848835, "timestamp": "2025-12-07T16:44:04.182772+00:00", "meta": {"OBJECT_NAME": "FENGYUN 1C DEB", "OBJECT_ID": "1999-025DM", "EPOCH": "2025-12-06T21:44:18.920256", "MEAN_MOTION": 14.02182961, "ECCENTRICITY": 0.01915357, "INCLINATION": 98.7307, "RA_OF_ASC_NODE": 324.8894, "ARG_OF_PERICENTER": 83.3365, "MEAN_ANOMALY": 336.0073, "EPHEMERIS_TYPE": 0, "CLASSIFICATION_TYPE": "U", "NORAD_CAT_ID": 29819, "ELEMENT_SET_NO": 999, "REV_AT_EPOCH": 96538, "BSTAR": 0.00062643534, "MEAN_MOTION_DOT": 1.086e-05, "MEAN_MOTION_DDOT": 0}, "tle": {"line1": "1 29819U 99025DM  25340.90577454  .00001086  00000+0  62644-3 0  9998", "line2": "2 29819  98.7307 324.8894 0191535  83.3365 336.0073 14.02182961965382"}}, "geometry": {"type": "Point", "coordinates": [-143.0419354585753, 80.7857072491547]}}]}